{
  "norad_id": 33274,
  "name": "SUPERBIRD-C2",
  "history": [
    {
      "epoch": "2026-03-28T22:16:35.369760Z",
      "apogee_km": 35797.34266851971,
      "perigee_km": 35775.914534640986,
      "latitude_deg": -1.191712057199815,
      "longitude_deg": 135.9993154959165,
      "height_km": 35794.70503365861,
      "semi_major_axis_km": 42164.76560158035,
      "eccentricity": 0.0002541,
      "inclination_deg": 2.1547,
      "raan_deg": 82.2514,
      "arg_perigee_deg": 356.5116,
      "mean_anomaly_deg": 217.7403,
      "mean_motion_rev_day": 1.00271665
    },
    {
      "epoch": "2026-03-28T22:16:35.370624Z",
      "apogee_km": 35797.343511815016,
      "perigee_km": 35775.913691345675,
      "latitude_deg": -1.191712013370749,
      "longitude_deg": 135.99931048532548,
      "height_km": 35794.705696476514,
      "semi_major_axis_km": 42164.76560158035,
      "eccentricity": 0.00025412,
      "inclination_deg": 2.1547,
      "raan_deg": 82.2514,
      "arg_perigee_deg": 356.5116,
      "mean_anomaly_deg": 217.7403,
      "mean_motion_rev_day": 1.00271665
    },
    {
      "epoch": "2026-03-29T20:10:38.798112Z",
      "apogee_km": 35797.92716109783,
      "perigee_km": 35775.4870310699,
      "latitude_deg": -0.114598142882866,
      "longitude_deg": 136.02867166664956,
      "height_km": 35797.306476403006,
      "semi_major_axis_km": 42164.84409608387,
      "eccentricity": 0.0002661,
      "inclination_deg": 2.1572,
      "raan_deg": 82.2404,
      "arg_perigee_deg": 357.0546,
      "mean_anomaly_deg": 186.6216,
      "mean_motion_rev_day": 1.00271385
    },
    {
      "epoch": "2026-03-30T05:30:38.654784Z",
      "apogee_km": 35798.20591546771,
      "perigee_km": 35775.286771477535,
      "latitude_deg": -1.2824775968656914,
      "longitude_deg": 136.03377967284257,
      "height_km": 35776.83841797741,
      "semi_major_axis_km": 42164.883343472626,
      "eccentricity": 0.00027178,
      "inclination_deg": 2.1582,
      "raan_deg": 82.2352,
      "arg_perigee_deg": 357.1459,
      "mean_anomaly_deg": 326.9172,
      "mean_motion_rev_day": 1.00271245
    },
    {
      "epoch": "2026-03-30T10:12:54.272160Z",
      "apogee_km": 35798.337297921425,
      "perigee_km": 35775.181180204854,
      "latitude_deg": 1.2097662740361996,
      "longitude_deg": 136.03098583112438,
      "height_km": 35776.998996868715,
      "semi_major_axis_km": 42164.89623906314,
      "eccentricity": 0.00027459,
      "inclination_deg": 2.1587,
      "raan_deg": 82.2332,
      "arg_perigee_deg": 357.1788,
      "mean_anomaly_deg": 37.6442,
      "mean_motion_rev_day": 1.00271199
    },
    {
      "epoch": "2026-03-30T20:29:05.131968Z",
      "apogee_km": 35798.60538284209,
      "perigee_km": 35774.98205875646,
      "latitude_deg": -0.32367666958588803,
      "longitude_deg": 136.01810858405145,
      "height_km": 35797.84051845325,
      "semi_major_axis_km": 42164.93072079928,
      "eccentricity": 0.00028013,
      "inclination_deg": 2.1598,
      "raan_deg": 82.2277,
      "arg_perigee_deg": 357.7201,
      "mean_anomaly_deg": 191.5751,
      "mean_motion_rev_day": 1.00271076
    },
    {
      "epoch": "2026-03-31T20:33:38.566368Z",
      "apogee_km": 35799.24986935679,
      "perigee_km": 35774.51586870161,
      "latitude_deg": -0.4030533318406302,
      "longitude_deg": 136.00991934356622,
      "height_km": 35798.407986874634,
      "semi_major_axis_km": 42165.0198690292,
      "eccentricity": 0.0002933,
      "inclination_deg": 2.1624,
      "raan_deg": 82.2152,
      "arg_perigee_deg": 358.2813,
      "mean_anomaly_deg": 193.1516,
      "mean_motion_rev_day": 1.00270758
    },
    {
      "epoch": "2026-04-01T19:29:38.749920Z",
      "apogee_km": 35799.89731629866,
      "perigee_km": 35774.041672996136,
      "latitude_deg": 0.1582298213008858,
      "longitude_deg": 136.0226890674757,
      "height_km": 35799.30393148766,
      "semi_major_axis_km": 42165.1064946474,
      "eccentricity": 0.0003066,
      "inclination_deg": 2.1648,
      "raan_deg": 82.203,
      "arg_perigee_deg": 358.8431,
      "mean_anomaly_deg": 177.5406,
      "mean_motion_rev_day": 1.00270449
    },
    {
      "epoch": "2026-04-02T20:27:38.599776Z",
      "apogee_km": 35800.593942032625,
      "perigee_km": 35773.53231658963,
      "latitude_deg": -0.4240114350204396,
      "longitude_deg": 135.99465107707906,
      "height_km": 35799.76247247147,
      "semi_major_axis_km": 42165.20012931113,
      "eccentricity": 0.0003209,
      "inclination_deg": 2.1673,
      "raan_deg": 82.1897,
      "arg_perigee_deg": 359.5069,
      "mean_anomaly_deg": 192.4097,
      "mean_motion_rev_day": 1.00270115
    },
    {
      "epoch": "2026-04-02T22:04:22.166400Z",
      "apogee_km": 35800.63102939893,
      "perigee_km": 35773.51036780719,
      "latitude_deg": -1.2533312466843782,
      "longitude_deg": 135.9686126373935,
      "height_km": 35797.54881536851,
      "semi_major_axis_km": 42165.207698603066,
      "eccentricity": 0.0003216,
      "inclination_deg": 2.1675,
      "raan_deg": 82.1889,
      "arg_perigee_deg": 359.5604,
      "mean_anomaly_deg": 216.6043,
      "mean_motion_rev_day": 1.00270088
    },
    {
      "epoch": "2026-04-03T20:17:38.633856Z",
      "apogee_km": 35801.2281643415,
      "perigee_km": 35773.08704672176,
      "latitude_deg": -0.3705353694989927,
      "longitude_deg": 135.98800426199148,
      "height_km": 35800.48417889414,
      "semi_major_axis_km": 42165.29460553163,
      "eccentricity": 0.0003337,
      "inclination_deg": 2.1697,
      "raan_deg": 82.1768,
      "arg_perigee_deg": 0.15,
      "mean_anomaly_deg": 190.252,
      "mean_motion_rev_day": 1.00269778
    },
    {
      "epoch": "2026-04-03T22:01:49.971936Z",
      "apogee_km": 35801.261174609004,
      "perigee_km": 35773.07029650606,
      "latitude_deg": -1.2668300603806848,
      "longitude_deg": 135.95908874611962,
      "height_km": 35798.117425605466,
      "semi_major_axis_km": 42165.30273555753,
      "eccentricity": 0.00033429,
      "inclination_deg": 2.1699,
      "raan_deg": 82.176,
      "arg_perigee_deg": 0.201,
      "mean_anomaly_deg": 216.3199,
      "mean_motion_rev_day": 1.00269749
    },
    {
      "epoch": "2026-04-05T13:23:28.759200Z",
      "apogee_km": 35800.762620428715,
      "perigee_km": 35771.69619280265,
      "latitude_deg": 2.1576929791792963,
      "longitude_deg": 136.05143306991354,
      "height_km": 35785.77830406228,
      "semi_major_axis_km": 42164.366406615685,
      "eccentricity": 0.00034468,
      "inclination_deg": 2.1737,
      "raan_deg": 82.1516,
      "arg_perigee_deg": 357.6274,
      "mean_anomaly_deg": 90.9614,
      "mean_motion_rev_day": 1.00273089
    },
    {
      "epoch": "2026-04-05T20:14:17.131776Z",
      "apogee_km": 35800.917979574544,
      "perigee_km": 35771.61371959408,
      "latitude_deg": -0.41907580119075377,
      "longitude_deg": 135.997857024657,
      "height_km": 35799.990910154556,
      "semi_major_axis_km": 42164.402849584316,
      "eccentricity": 0.0003475,
      "inclination_deg": 2.1744,
      "raan_deg": 82.1468,
      "arg_perigee_deg": 357.7591,
      "mean_anomaly_deg": 193.8187,
      "mean_motion_rev_day": 1.00272959
    },
    {
      "epoch": "2026-04-06T04:47:36.988224Z",
      "apogee_km": 35801.03721880187,
      "perigee_km": 35771.56680579862,
      "latitude_deg": -1.392006036679745,
      "longitude_deg": 136.01058867809198,
      "height_km": 35774.326313032165,
      "semi_major_axis_km": 42164.439012300245,
      "eccentricity": 0.00034947,
      "inclination_deg": 2.1752,
      "raan_deg": 82.1422,
      "arg_perigee_deg": 357.9874,
      "mean_anomaly_deg": 322.2804,
      "mean_motion_rev_day": 1.0027283
    }
  ]
}